ONEWEB-0634             
1 56075U 23043AF  26025.16111541 -.00000076  00000+0 -23720-3 0  9991
2 56075  87.9001 287.7846 0001612  88.3574 271.7741 13.15548527137592
ONEWEB-0635             
1 56076U 23043AG  26025.23241049 -.00000150  00000+0 -43207-3 0  9992
2 56076  87.8999 287.7231 0001750  67.8663 292.2653 13.15548468137639
ONEWEB-0636             
1 56077U 23043AH  26025.22448485  .00000034  00000+0  57319-4 0  9994
2 56077  87.8995 287.7411 0001720  69.7216 290.4100 13.15545962137619
ONEWEB-0637             
1 56078U 23043AJ  26025.21817147 -.00000300  00000+0 -83146-3 0  9993
2 56078  87.8997 287.7597 0001879  78.2040 281.9301 13.15548724137631
ONEWEB-0647             
1 56079U 23043AK  26025.28946261 -.00000160  00000+0 -45879-3 0  9996
2 56079  87.8997 287.7583 0001561  70.6563 289.4736 13.15549218137635
ONEWEB-0651             
1 56080U 23043AL  26025.28471449 -.00000211  00000+0 -59454-3 0  9990
2 56080  87.8999 287.7536 0001821  72.8737 287.2593 13.15549536138836
ONEWEB-0718             
1 56081U 23043AM  26025.27995995  .00000011  00000+0 -42929-5 0  9995
2 56081  87.9002 287.7346 0001627  96.1867 263.9449 13.15548510137649
ONEWEB-0561             
1 56710U 23068A   26025.24470334  .00000146  00000+0  32731-3 0  9999
2 56710  87.9219 302.9682 0001804  62.3972 297.7345 13.20773981130630
ONEWEB-0668             
1 56711U 23068B   26025.09864727  .00000024  00000+0  29922-4 0  9990
2 56711  87.9029 257.2483 0001838  96.2568 263.8773 13.16595674132957
ONEWEB-0676             
1 56712U 23068C   26025.10656583  .00000025  00000+0  32595-4 0  9993
2 56712  87.9016 257.2638 0001701  72.5141 287.6176 13.16594778132875
ONEWEB-0677             
1 56713U 23068D   26025.30941408  .00000077  00000+0  15659-3 0  9997
2 56713  87.9234 302.9437 0001844  76.8183 283.3156 13.20773355130946
ONEWEB-0678             
1 56714U 23068E   26025.09614938 -.00000024  00000+0 -98871-4 0  9991
2 56714  87.9004 287.7502 0001354  67.5602 292.5671 13.15548590130471
ONEWEB-0679             
1 56715U 23068F   26025.14140266  .00000090  00000+0  20205-3 0  9992
2 56715  87.9013 257.2396 0002046  84.1213 276.0151 13.16595455132900
ONEWEB-0680             
1 56716U 23068G   26025.10616967  .00000045  00000+0  77008-4 0  9999
2 56716  87.9209 272.5045 0002050  91.4691 268.6678 13.21826582132191
ONEWEB-0681             
1 56717U 23068H   26025.16129457  .00000139  00000+0  30495-3 0  9991
2 56717  87.9201 272.5055 0002265  56.1929 303.9420 13.21825418132190
ONEWEB-0682             
1 56718U 23068J   26025.27440264  .00000032  00000+0  50409-4 0  9996
2 56718  87.8997 287.7252 0001989  85.3945 274.7413 13.15547712130661
