[{"OBJECT_NAME":"ONEWEB-0634","OBJECT_ID":"2023-043AF","EPOCH":"2026-01-25T03:52:00.371424","MEAN_MOTION":13.15548527,"ECCENTRICITY":0.00016121,"INCLINATION":87.9001,"RA_OF_ASC_NODE":287.7846,"ARG_OF_PERICENTER":88.3574,"MEAN_ANOMALY":271.7741,"EPHEMERIS_TYPE":0,"CLASSIFICATION_TYPE":"U","NORAD_CAT_ID":56075,"ELEMENT_SET_NO":999,"REV_AT_EPOCH":13759,"BSTAR":-0.00023720259,"MEAN_MOTION_DOT":-7.6e-7,"MEAN_MOTION_DDOT":0},{"OBJECT_NAME":"ONEWEB-0635","OBJECT_ID":"2023-043AG","EPOCH":"2026-01-25T05:34:40.266336","MEAN_MOTION":13.15548468,"ECCENTRICITY":0.00017504,"INCLINATION":87.8999,"RA_OF_ASC_NODE":287.7231,"ARG_OF_PERICENTER":67.8663,"MEAN_ANOMALY":292.2653,"EPHEMERIS_TYPE":0,"CLASSIFICATION_TYPE":"U","NORAD_CAT_ID":56076,"ELEMENT_SET_NO":999,"REV_AT_EPOCH":13763,"BSTAR":-0.00043206958,"MEAN_MOTION_DOT":-1.5e-6,"MEAN_MOTION_DDOT":0},{"OBJECT_NAME":"ONEWEB-0636","OBJECT_ID":"2023-043AH","EPOCH":"2026-01-25T05:23:15.491040","MEAN_MOTION":13.15545962,"ECCENTRICITY":0.00017207,"INCLINATION":87.8995,"RA_OF_ASC_NODE":287.7411,"ARG_OF_PERICENTER":69.7216,"MEAN_ANOMALY":290.41,"EPHEMERIS_TYPE":0,"CLASSIFICATION_TYPE":"U","NORAD_CAT_ID":56077,"ELEMENT_SET_NO":999,"REV_AT_EPOCH":13761,"BSTAR":5.7318901e-5,"MEAN_MOTION_DOT":3.4e-7,"MEAN_MOTION_DDOT":0},{"OBJECT_NAME":"ONEWEB-0637","OBJECT_ID":"2023-043AJ","EPOCH":"2026-01-25T05:14:10.015008","MEAN_MOTION":13.15548724,"ECCENTRICITY":0.00018799,"INCLINATION":87.8997,"RA_OF_ASC_NODE":287.7597,"ARG_OF_PERICENTER":78.204,"MEAN_ANOMALY":281.9301,"EPHEMERIS_TYPE":0,"CLASSIFICATION_TYPE":"U","NORAD_CAT_ID":56078,"ELEMENT_SET_NO":999,"REV_AT_EPOCH":13763,"BSTAR":-0.0008314628,"MEAN_MOTION_DOT":-3.0e-6,"MEAN_MOTION_DDOT":0},{"OBJECT_NAME":"ONEWEB-0647","OBJECT_ID":"2023-043AK","EPOCH":"2026-01-25T06:56:49.569504","MEAN_MOTION":13.15549218,"ECCENTRICITY":0.00015615,"INCLINATION":87.8997,"RA_OF_ASC_NODE":287.7583,"ARG_OF_PERICENTER":70.6563,"MEAN_ANOMALY":289.4736,"EPHEMERIS_TYPE":0,"CLASSIFICATION_TYPE":"U","NORAD_CAT_ID":56079,"ELEMENT_SET_NO":999,"REV_AT_EPOCH":13763,"BSTAR":-0.00045878547,"MEAN_MOTION_DOT":-1.6e-6,"MEAN_MOTION_DDOT":0},{"OBJECT_NAME":"ONEWEB-0651","OBJECT_ID":"2023-043AL","EPOCH":"2026-01-25T06:49:59.331936","MEAN_MOTION":13.15549536,"ECCENTRICITY":0.0001821,"INCLINATION":87.8999,"RA_OF_ASC_NODE":287.7536,"ARG_OF_PERICENTER":72.8737,"MEAN_ANOMALY":287.2593,"EPHEMERIS_TYPE":0,"CLASSIFICATION_TYPE":"U","NORAD_CAT_ID":56080,"ELEMENT_SET_NO":999,"REV_AT_EPOCH":13883,"BSTAR":-0.00059454232,"MEAN_MOTION_DOT":-2.11e-6,"MEAN_MOTION_DDOT":0},{"OBJECT_NAME":"ONEWEB-0718","OBJECT_ID":"2023-043AM","EPOCH":"2026-01-25T06:43:08.539680","MEAN_MOTION":13.1554851,"ECCENTRICITY":0.00016275,"INCLINATION":87.9002,"RA_OF_ASC_NODE":287.7346,"ARG_OF_PERICENTER":96.1867,"MEAN_ANOMALY":263.9449,"EPHEMERIS_TYPE":0,"CLASSIFICATION_TYPE":"U","NORAD_CAT_ID":56081,"ELEMENT_SET_NO":999,"REV_AT_EPOCH":13764,"BSTAR":-4.292894e-6,"MEAN_MOTION_DOT":1.1e-7,"MEAN_MOTION_DDOT":0},{"OBJECT_NAME":"ONEWEB-0561","OBJECT_ID":"2023-068A","EPOCH":"2026-01-25T05:52:22.368576","MEAN_MOTION":13.20773981,"ECCENTRICITY":0.00018041,"INCLINATION":87.9219,"RA_OF_ASC_NODE":302.9682,"ARG_OF_PERICENTER":62.3972,"MEAN_ANOMALY":297.7345,"EPHEMERIS_TYPE":0,"CLASSIFICATION_TYPE":"U","NORAD_CAT_ID":56710,"ELEMENT_SET_NO":999,"REV_AT_EPOCH":13063,"BSTAR":0.00032730817,"MEAN_MOTION_DOT":1.46e-6,"MEAN_MOTION_DDOT":0},{"OBJECT_NAME":"ONEWEB-0668","OBJECT_ID":"2023-068B","EPOCH":"2026-01-25T02:22:03.124128","MEAN_MOTION":13.16595674,"ECCENTRICITY":0.00018385,"INCLINATION":87.9029,"RA_OF_ASC_NODE":257.2483,"ARG_OF_PERICENTER":96.2568,"MEAN_ANOMALY":263.8773,"EPHEMERIS_TYPE":0,"CLASSIFICATION_TYPE":"U","NORAD_CAT_ID":56711,"ELEMENT_SET_NO":999,"REV_AT_EPOCH":13295,"BSTAR":2.9922199e-5,"MEAN_MOTION_DOT":2.4e-7,"MEAN_MOTION_DDOT":0},{"OBJECT_NAME":"ONEWEB-0676","OBJECT_ID":"2023-068C","EPOCH":"2026-01-25T02:33:27.287712","MEAN_MOTION":13.16594778,"ECCENTRICITY":0.00017011,"INCLINATION":87.9016,"RA_OF_ASC_NODE":257.2638,"ARG_OF_PERICENTER":72.5141,"MEAN_ANOMALY":287.6176,"EPHEMERIS_TYPE":0,"CLASSIFICATION_TYPE":"U","NORAD_CAT_ID":56712,"ELEMENT_SET_NO":999,"REV_AT_EPOCH":13287,"BSTAR":3.2594873e-5,"MEAN_MOTION_DOT":2.5e-7,"MEAN_MOTION_DDOT":0},{"OBJECT_NAME":"ONEWEB-0677","OBJECT_ID":"2023-068D","EPOCH":"2026-01-25T07:25:33.376512","MEAN_MOTION":13.20773355,"ECCENTRICITY":0.00018441,"INCLINATION":87.9234,"RA_OF_ASC_NODE":302.9437,"ARG_OF_PERICENTER":76.8183,"MEAN_ANOMALY":283.3156,"EPHEMERIS_TYPE":0,"CLASSIFICATION_TYPE":"U","NORAD_CAT_ID":56713,"ELEMENT_SET_NO":999,"REV_AT_EPOCH":13094,"BSTAR":0.000156586,"MEAN_MOTION_DOT":7.7e-7,"MEAN_MOTION_DDOT":0},{"OBJECT_NAME":"ONEWEB-0678","OBJECT_ID":"2023-068E","EPOCH":"2026-01-25T02:18:27.306432","MEAN_MOTION":13.1554859,"ECCENTRICITY":0.00013549,"INCLINATION":87.9004,"RA_OF_ASC_NODE":287.7502,"ARG_OF_PERICENTER":67.5602,"MEAN_ANOMALY":292.5671,"EPHEMERIS_TYPE":0,"CLASSIFICATION_TYPE":"U","NORAD_CAT_ID":56714,"ELEMENT_SET_NO":999,"REV_AT_EPOCH":13047,"BSTAR":-9.8870565e-5,"MEAN_MOTION_DOT":-2.4e-7,"MEAN_MOTION_DDOT":0},{"OBJECT_NAME":"ONEWEB-0679","OBJECT_ID":"2023-068F","EPOCH":"2026-01-25T03:23:37.189824","MEAN_MOTION":13.16595455,"ECCENTRICITY":0.00020468,"INCLINATION":87.9013,"RA_OF_ASC_NODE":257.2396,"ARG_OF_PERICENTER":84.1213,"MEAN_ANOMALY":276.0151,"EPHEMERIS_TYPE":0,"CLASSIFICATION_TYPE":"U","NORAD_CAT_ID":56715,"ELEMENT_SET_NO":999,"REV_AT_EPOCH":13290,"BSTAR":0.00020205326,"MEAN_MOTION_DOT":9.0e-7,"MEAN_MOTION_DDOT":0},{"OBJECT_NAME":"ONEWEB-0680","OBJECT_ID":"2023-068G","EPOCH":"2026-01-25T02:32:53.059488","MEAN_MOTION":13.21826582,"ECCENTRICITY":0.00020507,"INCLINATION":87.9209,"RA_OF_ASC_NODE":272.5045,"ARG_OF_PERICENTER":91.4691,"MEAN_ANOMALY":268.6678,"EPHEMERIS_TYPE":0,"CLASSIFICATION_TYPE":"U","NORAD_CAT_ID":56716,"ELEMENT_SET_NO":999,"REV_AT_EPOCH":13219,"BSTAR":7.7008327e-5,"MEAN_MOTION_DOT":4.5e-7,"MEAN_MOTION_DDOT":0},{"OBJECT_NAME":"ONEWEB-0681","OBJECT_ID":"2023-068H","EPOCH":"2026-01-25T03:52:15.850848","MEAN_MOTION":13.21825418,"ECCENTRICITY":0.00022652,"INCLINATION":87.9201,"RA_OF_ASC_NODE":272.5055,"ARG_OF_PERICENTER":56.1929,"MEAN_ANOMALY":303.942,"EPHEMERIS_TYPE":0,"CLASSIFICATION_TYPE":"U","NORAD_CAT_ID":56717,"ELEMENT_SET_NO":999,"REV_AT_EPOCH":13219,"BSTAR":0.00030495271,"MEAN_MOTION_DOT":1.39e-6,"MEAN_MOTION_DDOT":0},{"OBJECT_NAME":"ONEWEB-0682","OBJECT_ID":"2023-068J","EPOCH":"2026-01-25T06:35:08.388096","MEAN_MOTION":13.15547712,"ECCENTRICITY":0.00019895,"INCLINATION":87.8997,"RA_OF_ASC_NODE":287.7252,"ARG_OF_PERICENTER":85.3945,"MEAN_ANOMALY":274.7413,"EPHEMERIS_TYPE":0,"CLASSIFICATION_TYPE":"U","NORAD_CAT_ID":56718,"ELEMENT_SET_NO":999,"REV_AT_EPOCH":13066,"BSTAR":5.0409001e-5,"MEAN_MOTION_DOT":3.2e-7,"MEAN_MOTION_DDOT":0}]
